{
  "type": "FeatureCollection",
  "features": [
    {
      "type": "Feature",
      "properties": {
        "norad_id": 37846,
        "name": "GSAT0101 (GALILEO-PFM)",
        "group": "galileo",
        "lat": -8.097713406465255,
        "lon": 171.97105438417265,
        "alt_km": 23228.79604734849,
        "timestamp": "2025-12-17T21:39:45.950939+00:00",
        "meta_object_name": "GSAT0101 (GALILEO-PFM)",
        "meta_object_id": "2011-060A",
        "meta_epoch": "2025-12-15T20:00:41.819904",
        "meta_mean_motion": 1.70475823,
        "meta_eccentricity": 0.00030775,
        "meta_inclination": 57.052,
        "meta_ra_of_asc_node": 346.7358,
        "meta_arg_of_pericenter": 316.7426,
        "meta_mean_anomaly": 43.2514,
        "meta_ephemeris_type": 0,
        "meta_classification_type": "U",
        "meta_norad_cat_id": 37846,
        "meta_element_set_no": 999,
        "meta_rev_at_epoch": 8799,
        "meta_bstar": 0,
        "meta_mean_motion_dot": -8.2e-07,
        "meta_mean_motion_ddot": 0,
        "tle_line1": "1 37846U 11060A   25349.83381736 -.00000082  00000+0  00000+0 0  9997",
        "tle_line2": "2 37846  57.0520 346.7358 0003077 316.7426  43.2514  1.70475823 87990"
      },
      "geometry": {
        "type": "Point",
        "coordinates": [
          171.97105438417265,
          -8.097713406465255
        ]
      }
    },
    {
      "type": "Feature",
      "properties": {
        "norad_id": 37847,
        "name": "GSAT0102 (GALILEO-FM2)",
        "group": "galileo",
        "lat": -43.47679948189356,
        "lon": -155.36861176223772,
        "alt_km": 23223.392490281603,
        "timestamp": "2025-12-17T21:39:45.950959+00:00",
        "meta_object_name": "GSAT0102 (GALILEO-FM2)",
        "meta_object_id": "2011-060B",
        "meta_epoch": "2025-12-16T01:10:38.655264",
        "meta_mean_motion": 1.7047605,
        "meta_eccentricity": 0.00050527,
        "meta_inclination": 57.0527,
        "meta_ra_of_asc_node": 346.7304,
        "meta_arg_of_pericenter": 311.0932,
        "meta_mean_anomaly": 226.4679,
        "meta_ephemeris_type": 0,
        "meta_classification_type": "U",
        "meta_norad_cat_id": 37847,
        "meta_element_set_no": 999,
        "meta_rev_at_epoch": 8800,
        "meta_bstar": 0,
        "meta_mean_motion_dot": -8.2e-07,
        "meta_mean_motion_ddot": 0,
        "tle_line1": "1 37847U 11060B   25350.04905851 -.00000082  00000+0  00000+0 0  9993",
        "tle_line2": "2 37847  57.0527 346.7304 0005052 311.0932 226.4679  1.70476050 88007"
      },
      "geometry": {
        "type": "Point",
        "coordinates": [
          -155.36861176223772,
          -43.47679948189356
        ]
      }
    },
    {
      "type": "Feature",
      "properties": {
        "norad_id": 38857,
        "name": "GSAT0103 (GALILEO-FM3)",
        "group": "galileo",
        "lat": 12.319813906117144,
        "lon": -82.05214603808687,
        "alt_km": 23222.80820877758,
        "timestamp": "2025-12-17T21:39:45.950971+00:00",
        "meta_object_name": "GSAT0103 (GALILEO-FM3)",
        "meta_object_id": "2012-055A",
        "meta_epoch": "2025-12-13T12:39:44.093088",
        "meta_mean_motion": 1.70473367,
        "meta_eccentricity": 0.00026827,
        "meta_inclination": 55.6929,
        "meta_ra_of_asc_node": 106.6448,
        "meta_arg_of_pericenter": 268.8486,
        "meta_mean_anomaly": 91.0883,
        "meta_ephemeris_type": 0,
        "meta_classification_type": "U",
        "meta_norad_cat_id": 38857,
        "meta_element_set_no": 999,
        "meta_rev_at_epoch": 8184,
        "meta_bstar": 0,
        "meta_mean_motion_dot": 1e-08,
        "meta_mean_motion_ddot": 0,
        "tle_line1": "1 38857U 12055A   25347.52759367  .00000001  00000+0  00000+0 0  9998",
        "tle_line2": "2 38857  55.6929 106.6448 0002682 268.8486  91.0883  1.70473367 81846"
      },
      "geometry": {
        "type": "Point",
        "coordinates": [
          -82.05214603808687,
          12.319813906117144
        ]
      }
    },
    {
      "type": "Feature",
      "properties": {
        "norad_id": 40128,
        "name": "GSAT0201 (GALILEO 5)",
        "group": "galileo",
        "lat": 44.04065098519683,
        "lon": -22.25550358093278,
        "alt_km": 22088.19138547286,
        "timestamp": "2025-12-17T21:39:45.950983+00:00",
        "meta_object_name": "GSAT0201 (GALILEO 5)",
        "meta_object_id": "2014-050A",
        "meta_epoch": "2025-12-14T00:08:14.916480",
        "meta_mean_motion": 1.85519648,
        "meta_eccentricity": 0.16480052,
        "meta_inclination": 49.0753,
        "meta_ra_of_asc_node": 281.012,
        "meta_arg_of_pericenter": 172.3262,
        "meta_mean_anomaly": 190.5827,
        "meta_ephemeris_type": 0,
        "meta_classification_type": "U",
        "meta_norad_cat_id": 40128,
        "meta_element_set_no": 999,
        "meta_rev_at_epoch": 7488,
        "meta_bstar": 0,
        "meta_mean_motion_dot": -9.9e-07,
        "meta_mean_motion_ddot": 0,
        "tle_line1": "1 40128U 14050A   25348.00572820 -.00000099  00000+0  00000+0 0  9998",
        "tle_line2": "2 40128  49.0753 281.0120 1648005 172.3262 190.5827  1.85519648 74882"
      },
      "geometry": {
        "type": "Point",
        "coordinates": [
          -22.25550358093278,
          44.04065098519683
        ]
      }
    },
    {
      "type": "Feature",
      "properties": {
        "norad_id": 40129,
        "name": "GSAT0202 (GALILEO 6)",
        "group": "galileo",
        "lat": -44.5708487031159,
        "lon": -138.6186218639538,
        "alt_km": 23183.581685212004,
        "timestamp": "2025-12-17T21:39:45.950993+00:00",
        "meta_object_name": "GSAT0202 (GALILEO 6)",
        "meta_object_id": "2014-050B",
        "meta_epoch": "2025-12-14T06:17:14.023104",
        "meta_mean_motion": 1.85520414,
        "meta_eccentricity": 0.16487132,
        "meta_inclination": 49.0906,
        "meta_ra_of_asc_node": 280.0852,
        "meta_arg_of_pericenter": 173.0839,
        "meta_mean_anomaly": 189.5459,
        "meta_ephemeris_type": 0,
        "meta_classification_type": "U",
        "meta_norad_cat_id": 40129,
        "meta_element_set_no": 999,
        "meta_rev_at_epoch": 7705,
        "meta_bstar": 0,
        "meta_mean_motion_dot": -9.7e-07,
        "meta_mean_motion_ddot": 0,
        "tle_line1": "1 40129U 14050B   25348.26196786 -.00000097  00000+0  00000+0 0  9998",
        "tle_line2": "2 40129  49.0906 280.0852 1648713 173.0839 189.5459  1.85520414 77052"
      },
      "geometry": {
        "type": "Point",
        "coordinates": [
          -138.6186218639538,
          -44.5708487031159
        ]
      }
    },
    {
      "type": "Feature",
      "properties": {
        "norad_id": 40544,
        "name": "GSAT0203 (GALILEO 7)",
        "group": "galileo",
        "lat": -28.023574575132873,
        "lon": -33.82890956937445,
        "alt_km": 23213.870604871998,
        "timestamp": "2025-12-17T21:39:45.951004+00:00",
        "meta_object_name": "GSAT0203 (GALILEO 7)",
        "meta_object_id": "2015-017A",
        "meta_epoch": "2025-12-16T18:50:30.414336",
        "meta_mean_motion": 1.70476093,
        "meta_eccentricity": 0.00064786,
        "meta_inclination": 56.8453,
        "meta_ra_of_asc_node": 346.5695,
        "meta_arg_of_pericenter": 273.4136,
        "meta_mean_anomaly": 86.5288,
        "meta_ephemeris_type": 0,
        "meta_classification_type": "U",
        "meta_norad_cat_id": 40544,
        "meta_element_set_no": 999,
        "meta_rev_at_epoch": 6609,
        "meta_bstar": 0,
        "meta_mean_motion_dot": -8.1e-07,
        "meta_mean_motion_ddot": 0,
        "tle_line1": "1 40544U 15017A   25350.78507424 -.00000081  00000+0  00000+0 0  9991",
        "tle_line2": "2 40544  56.8453 346.5695 0006478 273.4136  86.5288  1.70476093 66094"
      },
      "geometry": {
        "type": "Point",
        "coordinates": [
          -33.82890956937445,
          -28.023574575132873
        ]
      }
    },
    {
      "type": "Feature",
      "properties": {
        "norad_id": 40545,
        "name": "GSAT0204 (GALILEO 8)",
        "group": "galileo",
        "lat": 9.21103541935787,
        "lon": 160.46828811414215,
        "alt_km": 23222.866560523238,
        "timestamp": "2025-12-17T21:39:45.951014+00:00",
        "meta_object_name": "GSAT0204 (GALILEO 8)",
        "meta_object_id": "2015-017B",
        "meta_epoch": "2025-12-14T16:39:40.338432",
        "meta_mean_motion": 1.70475755,
        "meta_eccentricity": 0.0006191,
        "meta_inclination": 56.8531,
        "meta_ra_of_asc_node": 346.6443,
        "meta_arg_of_pericenter": 264.523,
        "meta_mean_anomaly": 95.425,
        "meta_ephemeris_type": 0,
        "meta_classification_type": "U",
        "meta_norad_cat_id": 40545,
        "meta_element_set_no": 999,
        "meta_rev_at_epoch": 2910,
        "meta_bstar": 0,
        "meta_mean_motion_dot": -8.5e-07,
        "meta_mean_motion_ddot": 0,
        "tle_line1": "1 40545U 15017B   25348.69421688 -.00000085  00000+0  00000+0 0  9990",
        "tle_line2": "2 40545  56.8531 346.6443 0006191 264.5230  95.4250  1.70475755 29105"
      },
      "geometry": {
        "type": "Point",
        "coordinates": [
          160.46828811414215,
          9.21103541935787
        ]
      }
    }
  ]
}